HAWK-11A                
1 62382U 24247F   26068.51231358  .00009457  00000+0  34106-3 0  9991
2 62382  44.9941 114.3328 0005466 327.3713  32.6832 15.28849427 67741
STARLINK-32830          
1 63034U 25034F   26068.73607494  .00018267  00000+0  62718-3 0  9992
2 63034  53.1578 257.9268 0001575 135.6995 224.4132 15.30208554 59096
