[{"OBJECT_NAME":"HAWK-11A","OBJECT_ID":"2024-247F","EPOCH":"2026-03-09T12:17:43.893312","MEAN_MOTION":15.28849427,"ECCENTRICITY":0.00054663,"INCLINATION":44.9941,"RA_OF_ASC_NODE":114.3328,"ARG_OF_PERICENTER":327.3713,"MEAN_ANOMALY":32.6832,"EPHEMERIS_TYPE":0,"CLASSIFICATION_TYPE":"U","NORAD_CAT_ID":62382,"ELEMENT_SET_NO":999,"REV_AT_EPOCH":6774,"BSTAR":0.00034106017,"MEAN_MOTION_DOT":9.457e-5,"MEAN_MOTION_DDOT":0},{"OBJECT_NAME":"STARLINK-32830","OBJECT_ID":"2025-034F","EPOCH":"2026-03-09T17:39:56.874816","MEAN_MOTION":15.30208554,"ECCENTRICITY":0.00015752,"INCLINATION":53.1578,"RA_OF_ASC_NODE":257.9268,"ARG_OF_PERICENTER":135.6995,"MEAN_ANOMALY":224.4132,"EPHEMERIS_TYPE":0,"CLASSIFICATION_TYPE":"U","NORAD_CAT_ID":63034,"ELEMENT_SET_NO":999,"REV_AT_EPOCH":5909,"BSTAR":0.00062718239,"MEAN_MOTION_DOT":0.00018267,"MEAN_MOTION_DDOT":0}]
